CCSDS_OMM_VERS = 2.0
CREATION_DATE  = 
ORIGINATOR     = 

OBJECT_NAME    = ALOS (DAICHI)
OBJECT_ID      = 2006-002A
CENTER_NAME    = EARTH
REF_FRAME      = TEME
TIME_SYSTEM    = UTC
MEAN_ELEMENT_THEORY = SGP/SGP4

EPOCH          = 2025-12-17T17:37:14.152512
MEAN_MOTION    = 14.69501788
ECCENTRICITY   = .00013612
INCLINATION    = 98.1098
RA_OF_ASC_NODE = 303.1864
ARG_OF_PERICENTER = 113.5739
MEAN_ANOMALY   = 246.5610

EPHEMERIS_TYPE = 0
CLASSIFICATION_TYPE = U
NORAD_CAT_ID   = 28931
ELEMENT_SET_NO = 999
REV_AT_EPOCH   = 6144
BSTAR          = .19545051E-3
MEAN_MOTION_DOT = .111E-4
MEAN_MOTION_DDOT = 0

CCSDS_OMM_VERS = 2.0
CREATION_DATE  = 
ORIGINATOR     = 

OBJECT_NAME    = H-2A R/B
OBJECT_ID      = 2006-002B
CENTER_NAME    = EARTH
REF_FRAME      = TEME
TIME_SYSTEM    = UTC
MEAN_ELEMENT_THEORY = SGP/SGP4

EPOCH          = 2025-12-28T07:25:40.627200
MEAN_MOTION    = 15.14892516
ECCENTRICITY   = .0054979
INCLINATION    = 98.2322
RA_OF_ASC_NODE = 138.3338
ARG_OF_PERICENTER = 123.8024
MEAN_ANOMALY   = 236.8459

EPHEMERIS_TYPE = 0
CLASSIFICATION_TYPE = U
NORAD_CAT_ID   = 28932
ELEMENT_SET_NO = 999
REV_AT_EPOCH   = 8362
BSTAR          = .68323E-3
MEAN_MOTION_DOT = .13144E-3
MEAN_MOTION_DDOT = 0

CCSDS_OMM_VERS = 2.0
CREATION_DATE  = 
ORIGINATOR     = 

OBJECT_NAME    = RESURS-DK 1
OBJECT_ID      = 2006-021A
CENTER_NAME    = EARTH
REF_FRAME      = TEME
TIME_SYSTEM    = UTC
MEAN_ELEMENT_THEORY = SGP/SGP4

EPOCH          = 2025-12-28T12:10:33.807072
MEAN_MOTION    = 15.12254208
ECCENTRICITY   = .0007011
INCLINATION    = 69.9342
RA_OF_ASC_NODE = 61.0864
ARG_OF_PERICENTER = 245.2412
MEAN_ANOMALY   = 114.8024

EPHEMERIS_TYPE = 0
CLASSIFICATION_TYPE = U
NORAD_CAT_ID   = 29228
ELEMENT_SET_NO = 999
REV_AT_EPOCH   = 7676
BSTAR          = .23085E-3
MEAN_MOTION_DOT = .3897E-4
MEAN_MOTION_DDOT = 0

CCSDS_OMM_VERS = 2.0
CREATION_DATE  = 
ORIGINATOR     = 

OBJECT_NAME    = CZ-4B R/B
OBJECT_ID      = 2006-046C
CENTER_NAME    = EARTH
REF_FRAME      = TEME
TIME_SYSTEM    = UTC
MEAN_ELEMENT_THEORY = SGP/SGP4

EPOCH          = 2025-12-28T01:59:18.523392
MEAN_MOTION    = 15.16027359
ECCENTRICITY   = .00345419
INCLINATION    = 97.5716
RA_OF_ASC_NODE = 42.1792
ARG_OF_PERICENTER = 153.4159
MEAN_ANOMALY   = 206.8854

EPHEMERIS_TYPE = 0
CLASSIFICATION_TYPE = U
NORAD_CAT_ID   = 29507
ELEMENT_SET_NO = 999
REV_AT_EPOCH   = 4919
BSTAR          = .32440966E-3
MEAN_MOTION_DOT = .6261E-4
MEAN_MOTION_DDOT = 0

CCSDS_OMM_VERS = 2.0
CREATION_DATE  = 
ORIGINATOR     = 

OBJECT_NAME    = CZ-2C R/B
OBJECT_ID      = 2007-010B
CENTER_NAME    = EARTH
REF_FRAME      = TEME
TIME_SYSTEM    = UTC
MEAN_ELEMENT_THEORY = SGP/SGP4

EPOCH          = 2025-12-28T06:55:44.202720
MEAN_MOTION    = 14.20216428
ECCENTRICITY   = .0059748
INCLINATION    = 98.3974
RA_OF_ASC_NODE = 114.1571
ARG_OF_PERICENTER = 141.0616
MEAN_ANOMALY   = 219.4888

EPHEMERIS_TYPE = 0
CLASSIFICATION_TYPE = U
NORAD_CAT_ID   = 31114
ELEMENT_SET_NO = 999
REV_AT_EPOCH   = 96958
BSTAR          = .11544E-3
MEAN_MOTION_DOT = .21E-5
MEAN_MOTION_DDOT = 0

CCSDS_OMM_VERS = 2.0
CREATION_DATE  = 
ORIGINATOR     = 

OBJECT_NAME    = COSMO-SKYMED 1
OBJECT_ID      = 2007-023A
CENTER_NAME    = EARTH
REF_FRAME      = TEME
TIME_SYSTEM    = UTC
MEAN_ELEMENT_THEORY = SGP/SGP4

EPOCH          = 2025-12-28T12:11:56.655168
MEAN_MOTION    = 14.95885296
ECCENTRICITY   = .0001031
INCLINATION    = 97.8836
RA_OF_ASC_NODE = 188.0118
ARG_OF_PERICENTER = 78.7542
MEAN_ANOMALY   = 281.3795

EPHEMERIS_TYPE = 0
CLASSIFICATION_TYPE = U
NORAD_CAT_ID   = 31598
ELEMENT_SET_NO = 999
REV_AT_EPOCH   = 426
BSTAR          = .44591E-3
MEAN_MOTION_DOT = .4929E-4
MEAN_MOTION_DDOT = 0

CCSDS_OMM_VERS = 2.0
CREATION_DATE  = 
ORIGINATOR     = 

OBJECT_NAME    = COSMOS 2428
OBJECT_ID      = 2007-029A
CENTER_NAME    = EARTH
REF_FRAME      = TEME
TIME_SYSTEM    = UTC
MEAN_ELEMENT_THEORY = SGP/SGP4

EPOCH          = 2025-12-28T09:13:54.554880
MEAN_MOTION    = 14.12896960
ECCENTRICITY   = .0004567
INCLINATION    = 70.9371
RA_OF_ASC_NODE = 353.0310
ARG_OF_PERICENTER = 1.8841
MEAN_ANOMALY   = 358.2296

EPHEMERIS_TYPE = 0
CLASSIFICATION_TYPE = U
NORAD_CAT_ID   = 31792
ELEMENT_SET_NO = 999
REV_AT_EPOCH   = 95402
BSTAR          = .17992E-3
MEAN_MOTION_DOT = .287E-5
MEAN_MOTION_DDOT = 0

CCSDS_OMM_VERS = 2.0
CREATION_DATE  = 
ORIGINATOR     = 

OBJECT_NAME    = SL-16 R/B
OBJECT_ID      = 2007-029B
CENTER_NAME    = EARTH
REF_FRAME      = TEME
TIME_SYSTEM    = UTC
MEAN_ELEMENT_THEORY = SGP/SGP4

EPOCH          = 2025-12-28T07:38:21.405120
MEAN_MOTION    = 14.14821052
ECCENTRICITY   = .0001911
INCLINATION    = 70.9768
RA_OF_ASC_NODE = 322.4096
ARG_OF_PERICENTER = 267.7121
MEAN_ANOMALY   = 261.3017

EPHEMERIS_TYPE = 0
CLASSIFICATION_TYPE = U
NORAD_CAT_ID   = 31793
ELEMENT_SET_NO = 999
REV_AT_EPOCH   = 95527
BSTAR          = .1774E-3
MEAN_MOTION_DOT = .295E-5
MEAN_MOTION_DDOT = 0

CCSDS_OMM_VERS = 2.0
CREATION_DATE  = 
ORIGINATOR     = 

OBJECT_NAME    = KORONAS-FOTON
OBJECT_ID      = 2009-003A
CENTER_NAME    = EARTH
REF_FRAME      = TEME
TIME_SYSTEM    = UTC
MEAN_ELEMENT_THEORY = SGP/SGP4

EPOCH          = 2025-12-28T00:15:29.225952
MEAN_MOTION    = 15.41486416
ECCENTRICITY   = .00131434
INCLINATION    = 82.4309
RA_OF_ASC_NODE = 350.2776
ARG_OF_PERICENTER = 61.1160
MEAN_ANOMALY   = 299.1403

EPHEMERIS_TYPE = 0
CLASSIFICATION_TYPE = U
NORAD_CAT_ID   = 33504
ELEMENT_SET_NO = 999
REV_AT_EPOCH   = 93469
BSTAR          = .24420601E-3
MEAN_MOTION_DOT = .10299E-3
MEAN_MOTION_DDOT = 0

CCSDS_OMM_VERS = 2.0
CREATION_DATE  = 
ORIGINATOR     = 

OBJECT_NAME    = CZ-2C R/B
OBJECT_ID      = 2011-030B
CENTER_NAME    = EARTH
REF_FRAME      = TEME
TIME_SYSTEM    = UTC
MEAN_ELEMENT_THEORY = SGP/SGP4

EPOCH          = 2025-12-28T09:56:12.056352
MEAN_MOTION    = 14.80951187
ECCENTRICITY   = .0051698
INCLINATION    = 97.8435
RA_OF_ASC_NODE = 316.1759
ARG_OF_PERICENTER = 221.2255
MEAN_ANOMALY   = 251.6841

EPHEMERIS_TYPE = 0
CLASSIFICATION_TYPE = U
NORAD_CAT_ID   = 37731
ELEMENT_SET_NO = 999
REV_AT_EPOCH   = 77954
BSTAR          = .23027E-3
MEAN_MOTION_DOT = .1768E-4
MEAN_MOTION_DDOT = 0

CCSDS_OMM_VERS = 2.0
CREATION_DATE  = 
ORIGINATOR     = 

OBJECT_NAME    = H-2A R/B
OBJECT_ID      = 2012-025E
CENTER_NAME    = EARTH
REF_FRAME      = TEME
TIME_SYSTEM    = UTC
MEAN_ELEMENT_THEORY = SGP/SGP4

EPOCH          = 2025-12-28T10:34:33.259872
MEAN_MOTION    = 14.94550362
ECCENTRICITY   = .0044776
INCLINATION    = 98.4621
RA_OF_ASC_NODE = 318.8843
ARG_OF_PERICENTER = 183.6654
MEAN_ANOMALY   = 176.4243

EPHEMERIS_TYPE = 0
CLASSIFICATION_TYPE = U
NORAD_CAT_ID   = 38341
ELEMENT_SET_NO = 999
REV_AT_EPOCH   = 73757
BSTAR          = .4326E-3
MEAN_MOTION_DOT = .4702E-4
MEAN_MOTION_DDOT = 0

CCSDS_OMM_VERS = 2.0
CREATION_DATE  = 
ORIGINATOR     = 

OBJECT_NAME    = SHIJIAN-16 (SJ-16)
OBJECT_ID      = 2013-057A
CENTER_NAME    = EARTH
REF_FRAME      = TEME
TIME_SYSTEM    = UTC
MEAN_ELEMENT_THEORY = SGP/SGP4

EPOCH          = 2025-12-28T11:51:31.580928
MEAN_MOTION    = 14.92037147
ECCENTRICITY   = .0017904
INCLINATION    = 74.9738
RA_OF_ASC_NODE = 319.8433
ARG_OF_PERICENTER = 283.3958
MEAN_ANOMALY   = 76.5234

EPHEMERIS_TYPE = 0
CLASSIFICATION_TYPE = U
NORAD_CAT_ID   = 39358
ELEMENT_SET_NO = 999
REV_AT_EPOCH   = 66088
BSTAR          = .18152E-3
MEAN_MOTION_DOT = .1818E-4
MEAN_MOTION_DDOT = 0

