ALOS (DAICHI)           
1 28931U 06002A   25351.73419158  .00001110  00000+0  19545-3 0  9994
2 28931  98.1098 303.1864 0001361 113.5739 246.5610 14.69501788 61443
H-2A R/B                
1 28932U 06002B   25362.30949800  .00013144  00000+0  68323-3 0  9990
2 28932  98.2322 138.3338 0054979 123.8024 236.8459 15.14892516 83623
RESURS-DK 1             
1 29228U 06021A   25362.50733573  .00003897  00000+0  23085-3 0  9990
2 29228  69.9342  61.0864 0007011 245.2412 114.8024 15.12254208 76768
CZ-4B R/B               
1 29507U 06046C   25362.08285328  .00006261  00000+0  32441-3 0  9994
2 29507  97.5716  42.1792 0034541 153.4159 206.8854 15.16027359 49195
CZ-2C R/B               
1 31114U 07010B   25362.28870605  .00000210  00000+0  11544-3 0  9992
2 31114  98.3974 114.1571 0059748 141.0616 219.4888 14.20216428969581
COSMO-SKYMED 1          
1 31598U 07023A   25362.50829462  .00004929  00000+0  44591-3 0  9991
2 31598  97.8836 188.0118 0001031  78.7542 281.3795 14.95885296  4268
COSMOS 2428             
1 31792U 07029A   25362.38465920  .00000287  00000+0  17992-3 0  9992
2 31792  70.9371 353.0310 0004567   1.8841 358.2296 14.12896960954021
SL-16 R/B               
1 31793U 07029B   25362.31830330  .00000295  00000+0  17740-3 0  9997
2 31793  70.9768 322.4096 0001911 267.7121 261.3017 14.14821052955272
KORONAS-FOTON           
1 33504U 09003A   25362.01075493  .00010299  00000+0  24421-3 0  9990
2 33504  82.4309 350.2776 0013143  61.1160 299.1403 15.41486416934699
CZ-2C R/B               
1 37731U 11030B   25362.41402843  .00001768  00000+0  23027-3 0  9998
2 37731  97.8435 316.1759 0051698 221.2255 251.6841 14.80951187779542
H-2A R/B                
1 38341U 12025E   25362.44066273  .00004702  00000+0  43260-3 0  9999
2 38341  98.4621 318.8843 0044776 183.6654 176.4243 14.94550362737572
SHIJIAN-16 (SJ-16)      
1 39358U 13057A   25362.49411552  .00001818  00000+0  18152-3 0  9990
2 39358  74.9738 319.8433 0017904 283.3958  76.5234 14.92037147660881
